SL-14 R/B               
1 21423U 91042B   25345.29634543  .00000779  00000+0  95630-4 0  9992
2 21423  82.4925 303.0764 0017324 166.3948 193.7737 14.81737004839980
ERS-1                   
1 21574U 91050A   25345.27710495  .00000548  00000+0  19005-3 0  9992
2 21574  98.7906 356.2953 0032983 104.2445 256.2409 14.39362877803018
ARIANE 40 R/B           
1 21610U 91050F   25345.12209877  .00000545  00000+0  17599-3 0  9997
2 21610  98.2165  35.6109 0002877   6.1439 353.9787 14.42811226806225
INTERCOSMOS 25          
1 21819U 91086A   25345.14929229  .00002221  00000+0  44134-3 0  9997
2 21819  82.6076   3.5378 1486729 307.8246  39.7078 12.11719070485960
SL-8 R/B                
1 21876U 92008B   25345.21483255  .00000164  00000+0  15281-3 0  9992
2 21876  82.9265 333.5807 0035279  23.9918 346.8740 13.75958343697254
SL-8 R/B                
1 21938U 92020B   25345.18064328  .00000119  00000+0  10716-3 0  9995
2 21938  82.9308 219.4753 0028789 182.5325 301.3624 13.75526658688960
USA 81                  
1 21949U 92023A   25345.28753972  .00000286  00000+0  98580-4 0  9992
2 21949  85.0082 182.4138 0001469  64.2085 295.9259 14.32326101 82130
COSMOS 2219             
1 22219U 92076A   25345.02687463 -.00000079  00000+0 -16511-4 0  9990
2 22219  71.0584 203.4137 0019050 329.1853  30.8150 14.14062458705845
SL-16 R/B               
1 22220U 92076B   25345.30863330 -.00000113  00000+0 -32574-4 0  9998
2 22220  71.0007  14.5469 0014849 236.1635 202.6339 14.16841013709310
COSMOS 2221             
1 22236U 92080A   25345.14541644  .00003049  00000+0  27077-3 0  9993
2 22236  82.5048   3.8515 0015942 126.5033 233.7661 14.95750769767558
SL-16 R/B               
1 22285U 92093B   25344.97731727  .00000287  00000+0  17163-3 0  9990
2 22285  71.0200 190.4956 0002131  77.6988 282.4374 14.15428055700605
COSMOS 2228             
1 22286U 92094A   25345.21951101  .00004645  00000+0  40344-3 0  9999
2 22286  82.5181 321.9890 0016449 236.9644 122.9999 14.96718747762827
