CCSDS_OMM_VERS = 2.0
CREATION_DATE  = 
ORIGINATOR     = 

OBJECT_NAME    = SL-14 R/B
OBJECT_ID      = 1991-042B
CENTER_NAME    = EARTH
REF_FRAME      = TEME
TIME_SYSTEM    = UTC
MEAN_ELEMENT_THEORY = SGP/SGP4

EPOCH          = 2025-12-11T07:06:44.245152
MEAN_MOTION    = 14.81737004
ECCENTRICITY   = .00173246
INCLINATION    = 82.4925
RA_OF_ASC_NODE = 303.0764
ARG_OF_PERICENTER = 166.3948
MEAN_ANOMALY   = 193.7737

EPHEMERIS_TYPE = 0
CLASSIFICATION_TYPE = U
NORAD_CAT_ID   = 21423
ELEMENT_SET_NO = 999
REV_AT_EPOCH   = 83998
BSTAR          = .95630264E-4
MEAN_MOTION_DOT = .779E-5
MEAN_MOTION_DDOT = 0

CCSDS_OMM_VERS = 2.0
CREATION_DATE  = 
ORIGINATOR     = 

OBJECT_NAME    = ERS-1
OBJECT_ID      = 1991-050A
CENTER_NAME    = EARTH
REF_FRAME      = TEME
TIME_SYSTEM    = UTC
MEAN_ELEMENT_THEORY = SGP/SGP4

EPOCH          = 2025-12-11T06:39:01.867680
MEAN_MOTION    = 14.39362877
ECCENTRICITY   = .0032983
INCLINATION    = 98.7906
RA_OF_ASC_NODE = 356.2953
ARG_OF_PERICENTER = 104.2445
MEAN_ANOMALY   = 256.2409

EPHEMERIS_TYPE = 0
CLASSIFICATION_TYPE = U
NORAD_CAT_ID   = 21574
ELEMENT_SET_NO = 999
REV_AT_EPOCH   = 80301
BSTAR          = .19004807E-3
MEAN_MOTION_DOT = .548E-5
MEAN_MOTION_DDOT = 0

CCSDS_OMM_VERS = 2.0
CREATION_DATE  = 
ORIGINATOR     = 

OBJECT_NAME    = ARIANE 40 R/B
OBJECT_ID      = 1991-050F
CENTER_NAME    = EARTH
REF_FRAME      = TEME
TIME_SYSTEM    = UTC
MEAN_ELEMENT_THEORY = SGP/SGP4

EPOCH          = 2025-12-11T02:55:49.333728
MEAN_MOTION    = 14.42811226
ECCENTRICITY   = .00028773
INCLINATION    = 98.2165
RA_OF_ASC_NODE = 35.6109
ARG_OF_PERICENTER = 6.1439
MEAN_ANOMALY   = 353.9787

EPHEMERIS_TYPE = 0
CLASSIFICATION_TYPE = U
NORAD_CAT_ID   = 21610
ELEMENT_SET_NO = 999
REV_AT_EPOCH   = 80622
BSTAR          = .17599155E-3
MEAN_MOTION_DOT = .545E-5
MEAN_MOTION_DDOT = 0

CCSDS_OMM_VERS = 2.0
CREATION_DATE  = 
ORIGINATOR     = 

OBJECT_NAME    = INTERCOSMOS 25
OBJECT_ID      = 1991-086A
CENTER_NAME    = EARTH
REF_FRAME      = TEME
TIME_SYSTEM    = UTC
MEAN_ELEMENT_THEORY = SGP/SGP4

EPOCH          = 2025-12-11T03:34:58.853856
MEAN_MOTION    = 12.11719070
ECCENTRICITY   = .14867294
INCLINATION    = 82.6076
RA_OF_ASC_NODE = 3.5378
ARG_OF_PERICENTER = 307.8246
MEAN_ANOMALY   = 39.7078

EPHEMERIS_TYPE = 0
CLASSIFICATION_TYPE = U
NORAD_CAT_ID   = 21819
ELEMENT_SET_NO = 999
REV_AT_EPOCH   = 48596
BSTAR          = .44133787E-3
MEAN_MOTION_DOT = .2221E-4
MEAN_MOTION_DDOT = 0

CCSDS_OMM_VERS = 2.0
CREATION_DATE  = 
ORIGINATOR     = 

OBJECT_NAME    = SL-8 R/B
OBJECT_ID      = 1992-008B
CENTER_NAME    = EARTH
REF_FRAME      = TEME
TIME_SYSTEM    = UTC
MEAN_ELEMENT_THEORY = SGP/SGP4

EPOCH          = 2025-12-11T05:09:21.532320
MEAN_MOTION    = 13.75958343
ECCENTRICITY   = .00352798
INCLINATION    = 82.9265
RA_OF_ASC_NODE = 333.5807
ARG_OF_PERICENTER = 23.9918
MEAN_ANOMALY   = 346.8740

EPHEMERIS_TYPE = 0
CLASSIFICATION_TYPE = U
NORAD_CAT_ID   = 21876
ELEMENT_SET_NO = 999
REV_AT_EPOCH   = 69725
BSTAR          = .15280601E-3
MEAN_MOTION_DOT = .164E-5
MEAN_MOTION_DDOT = 0

CCSDS_OMM_VERS = 2.0
CREATION_DATE  = 
ORIGINATOR     = 

OBJECT_NAME    = SL-8 R/B
OBJECT_ID      = 1992-020B
CENTER_NAME    = EARTH
REF_FRAME      = TEME
TIME_SYSTEM    = UTC
MEAN_ELEMENT_THEORY = SGP/SGP4

EPOCH          = 2025-12-11T04:20:07.579392
MEAN_MOTION    = 13.75526658
ECCENTRICITY   = .00287894
INCLINATION    = 82.9308
RA_OF_ASC_NODE = 219.4753
ARG_OF_PERICENTER = 182.5325
MEAN_ANOMALY   = 301.3624

EPHEMERIS_TYPE = 0
CLASSIFICATION_TYPE = U
NORAD_CAT_ID   = 21938
ELEMENT_SET_NO = 999
REV_AT_EPOCH   = 68896
BSTAR          = .10715858E-3
MEAN_MOTION_DOT = .119E-5
MEAN_MOTION_DDOT = 0

CCSDS_OMM_VERS = 2.0
CREATION_DATE  = 
ORIGINATOR     = 

OBJECT_NAME    = USA 81
OBJECT_ID      = 1992-023A
CENTER_NAME    = EARTH
REF_FRAME      = TEME
TIME_SYSTEM    = UTC
MEAN_ELEMENT_THEORY = SGP/SGP4

EPOCH          = 2025-12-11T06:54:03.431808
MEAN_MOTION    = 14.32326101
ECCENTRICITY   = .00014693
INCLINATION    = 85.0082
RA_OF_ASC_NODE = 182.4138
ARG_OF_PERICENTER = 64.2085
MEAN_ANOMALY   = 295.9259

EPHEMERIS_TYPE = 0
CLASSIFICATION_TYPE = U
NORAD_CAT_ID   = 21949
ELEMENT_SET_NO = 999
REV_AT_EPOCH   = 8213
BSTAR          = .985805E-4
MEAN_MOTION_DOT = .286E-5
MEAN_MOTION_DDOT = 0

CCSDS_OMM_VERS = 2.0
CREATION_DATE  = 
ORIGINATOR     = 

OBJECT_NAME    = COSMOS 2219
OBJECT_ID      = 1992-076A
CENTER_NAME    = EARTH
REF_FRAME      = TEME
TIME_SYSTEM    = UTC
MEAN_ELEMENT_THEORY = SGP/SGP4

EPOCH          = 2025-12-11T00:38:41.968032
MEAN_MOTION    = 14.14062458
ECCENTRICITY   = .001905
INCLINATION    = 71.0584
RA_OF_ASC_NODE = 203.4137
ARG_OF_PERICENTER = 329.1853
MEAN_ANOMALY   = 30.8150

EPHEMERIS_TYPE = 0
CLASSIFICATION_TYPE = U
NORAD_CAT_ID   = 22219
ELEMENT_SET_NO = 999
REV_AT_EPOCH   = 70584
BSTAR          = -.16510941E-4
MEAN_MOTION_DOT = -.79E-6
MEAN_MOTION_DDOT = 0

CCSDS_OMM_VERS = 2.0
CREATION_DATE  = 
ORIGINATOR     = 

OBJECT_NAME    = SL-16 R/B
OBJECT_ID      = 1992-076B
CENTER_NAME    = EARTH
REF_FRAME      = TEME
TIME_SYSTEM    = UTC
MEAN_ELEMENT_THEORY = SGP/SGP4

EPOCH          = 2025-12-11T07:24:25.917120
MEAN_MOTION    = 14.16841013
ECCENTRICITY   = .00148495
INCLINATION    = 71.0007
RA_OF_ASC_NODE = 14.5469
ARG_OF_PERICENTER = 236.1635
MEAN_ANOMALY   = 202.6339

EPHEMERIS_TYPE = 0
CLASSIFICATION_TYPE = U
NORAD_CAT_ID   = 22220
ELEMENT_SET_NO = 999
REV_AT_EPOCH   = 70931
BSTAR          = -.32574333E-4
MEAN_MOTION_DOT = -.113E-5
MEAN_MOTION_DDOT = 0

CCSDS_OMM_VERS = 2.0
CREATION_DATE  = 
ORIGINATOR     = 

OBJECT_NAME    = COSMOS 2221
OBJECT_ID      = 1992-080A
CENTER_NAME    = EARTH
REF_FRAME      = TEME
TIME_SYSTEM    = UTC
MEAN_ELEMENT_THEORY = SGP/SGP4

EPOCH          = 2025-12-11T03:29:23.980416
MEAN_MOTION    = 14.95750769
ECCENTRICITY   = .00159422
INCLINATION    = 82.5048
RA_OF_ASC_NODE = 3.8515
ARG_OF_PERICENTER = 126.5033
MEAN_ANOMALY   = 233.7661

EPHEMERIS_TYPE = 0
CLASSIFICATION_TYPE = U
NORAD_CAT_ID   = 22236
ELEMENT_SET_NO = 999
REV_AT_EPOCH   = 76755
BSTAR          = .27076766E-3
MEAN_MOTION_DOT = .3049E-4
MEAN_MOTION_DDOT = 0

CCSDS_OMM_VERS = 2.0
CREATION_DATE  = 
ORIGINATOR     = 

OBJECT_NAME    = SL-16 R/B
OBJECT_ID      = 1992-093B
CENTER_NAME    = EARTH
REF_FRAME      = TEME
TIME_SYSTEM    = UTC
MEAN_ELEMENT_THEORY = SGP/SGP4

EPOCH          = 2025-12-10T23:27:20.212128
MEAN_MOTION    = 14.15428055
ECCENTRICITY   = .0002131
INCLINATION    = 71.0200
RA_OF_ASC_NODE = 190.4956
ARG_OF_PERICENTER = 77.6988
MEAN_ANOMALY   = 282.4374

EPHEMERIS_TYPE = 0
CLASSIFICATION_TYPE = U
NORAD_CAT_ID   = 22285
ELEMENT_SET_NO = 999
REV_AT_EPOCH   = 70060
BSTAR          = .17162987E-3
MEAN_MOTION_DOT = .287E-5
MEAN_MOTION_DDOT = 0

CCSDS_OMM_VERS = 2.0
CREATION_DATE  = 
ORIGINATOR     = 

OBJECT_NAME    = COSMOS 2228
OBJECT_ID      = 1992-094A
CENTER_NAME    = EARTH
REF_FRAME      = TEME
TIME_SYSTEM    = UTC
MEAN_ELEMENT_THEORY = SGP/SGP4

EPOCH          = 2025-12-11T05:16:05.751264
MEAN_MOTION    = 14.96718747
ECCENTRICITY   = .00164495
INCLINATION    = 82.5181
RA_OF_ASC_NODE = 321.9890
ARG_OF_PERICENTER = 236.9644
MEAN_ANOMALY   = 122.9999

EPHEMERIS_TYPE = 0
CLASSIFICATION_TYPE = U
NORAD_CAT_ID   = 22286
ELEMENT_SET_NO = 999
REV_AT_EPOCH   = 76282
BSTAR          = .40343824E-3
MEAN_MOTION_DOT = .4645E-4
MEAN_MOTION_DDOT = 0

